{
  "type": "FeatureCollection",
  "features": [
    {
      "type": "Feature",
      "properties": {
        "norad_id": 66820,
        "name": "KOMPSAT-7",
        "group": "last-30-days",
        "lat": -10.681600410861892,
        "lon": -58.34573146816052,
        "alt_km": 573.4687548114025,
        "timestamp": "2025-12-20T11:30:27.106161+00:00",
        "meta_object_name": "KOMPSAT-7",
        "meta_object_id": "2025-279A",
        "meta_epoch": "2025-12-15T00:17:19.244256",
        "meta_mean_motion": 15.0015594,
        "meta_eccentricity": 0.00093948,
        "meta_inclination": 97.641,
        "meta_ra_of_asc_node": 294.8339,
        "meta_arg_of_pericenter": 252.0315,
        "meta_mean_anomaly": 107.9885,
        "meta_ephemeris_type": 0,
        "meta_classification_type": "U",
        "meta_norad_cat_id": 66820,
        "meta_element_set_no": 999,
        "meta_rev_at_epoch": 199,
        "meta_bstar": 0.00025788518,
        "meta_mean_motion_dot": 3.163e-05,
        "meta_mean_motion_ddot": 0,
        "tle_line1": "1 66820U 25279A   25349.01202829  .00003163  00000+0  25789-3 0  9990",
        "tle_line2": "2 66820  97.6410 294.8339 0009394 252.0315 107.9885 15.00155940  1999"
      },
      "geometry": {
        "type": "Point",
        "coordinates": [
          -58.34573146816052,
          -10.681600410861892
        ]
      }
    },
    {
      "type": "Feature",
      "properties": {
        "norad_id": 66821,
        "name": "STARLINK-35966",
        "group": "last-30-days",
        "lat": 48.18254210581279,
        "lon": -158.75491253489906,
        "alt_km": 406.2575568602251,
        "timestamp": "2025-12-20T11:30:27.106171+00:00",
        "meta_object_name": "STARLINK-35966",
        "meta_object_id": "2025-280A",
        "meta_epoch": "2025-12-20T04:00:00.999072",
        "meta_mean_motion": 15.52512338,
        "meta_eccentricity": 0.000339,
        "meta_inclination": 69.9989,
        "meta_ra_of_asc_node": 178.0759,
        "meta_arg_of_pericenter": 273.7202,
        "meta_mean_anomaly": 191.0627,
        "meta_ephemeris_type": 0,
        "meta_classification_type": "U",
        "meta_norad_cat_id": 66821,
        "meta_element_set_no": 999,
        "meta_rev_at_epoch": 409,
        "meta_bstar": -9.3659e-05,
        "meta_mean_motion_dot": -5.924e-05,
        "meta_mean_motion_ddot": 0,
        "tle_line1": "1 66821U 25280A   25354.16667823 -.00005924  00000+0 -93659-4 0  9995",
        "tle_line2": "2 66821  69.9989 178.0759 0003390 273.7202 191.0627 15.52512338  4094"
      },
      "geometry": {
        "type": "Point",
        "coordinates": [
          -158.75491253489906,
          48.18254210581279
        ]
      }
    },
    {
      "type": "Feature",
      "properties": {
        "norad_id": 66822,
        "name": "STARLINK-35958",
        "group": "last-30-days",
        "lat": 49.816187683414356,
        "lon": -157.23411860182247,
        "alt_km": 406.09408599412836,
        "timestamp": "2025-12-20T11:30:27.106183+00:00",
        "meta_object_name": "STARLINK-35958",
        "meta_object_id": "2025-280B",
        "meta_epoch": "2025-12-20T04:00:00.999072",
        "meta_mean_motion": 15.5251138,
        "meta_eccentricity": 0.0003181,
        "meta_inclination": 69.9988,
        "meta_ra_of_asc_node": 178.0732,
        "meta_arg_of_pericenter": 267.7716,
        "meta_mean_anomaly": 198.9291,
        "meta_ephemeris_type": 0,
        "meta_classification_type": "U",
        "meta_norad_cat_id": 66822,
        "meta_element_set_no": 999,
        "meta_rev_at_epoch": 409,
        "meta_bstar": -5.5323e-05,
        "meta_mean_motion_dot": -3.568e-05,
        "meta_mean_motion_ddot": 0,
        "tle_line1": "1 66822U 25280B   25354.16667823 -.00003568  00000+0 -55323-4 0  9994",
        "tle_line2": "2 66822  69.9988 178.0732 0003181 267.7716 198.9291 15.52511380  4095"
      },
      "geometry": {
        "type": "Point",
        "coordinates": [
          -157.23411860182247,
          49.816187683414356
        ]
      }
    },
    {
      "type": "Feature",
      "properties": {
        "norad_id": 66823,
        "name": "STARLINK-35957",
        "group": "last-30-days",
        "lat": 51.42873539122729,
        "lon": -155.60686033475744,
        "alt_km": 405.84817363891943,
        "timestamp": "2025-12-20T11:30:27.106194+00:00",
        "meta_object_name": "STARLINK-35957",
        "meta_object_id": "2025-280C",
        "meta_epoch": "2025-12-20T04:00:00.999072",
        "meta_mean_motion": 15.52516033,
        "meta_eccentricity": 0.0003125,
        "meta_inclination": 69.999,
        "meta_ra_of_asc_node": 178.0714,
        "meta_arg_of_pericenter": 268.8112,
        "meta_mean_anomaly": 199.7982,
        "meta_ephemeris_type": 0,
        "meta_classification_type": "U",
        "meta_norad_cat_id": 66823,
        "meta_element_set_no": 999,
        "meta_rev_at_epoch": 409,
        "meta_bstar": -0.00010236,
        "meta_mean_motion_dot": -6.459e-05,
        "meta_mean_motion_ddot": 0,
        "tle_line1": "1 66823U 25280C   25354.16667823 -.00006459  00000+0 -10236-3 0  9990",
        "tle_line2": "2 66823  69.9990 178.0714 0003125 268.8112 199.7982 15.52516033  4095"
      },
      "geometry": {
        "type": "Point",
        "coordinates": [
          -155.60686033475744,
          51.42873539122729
        ]
      }
    },
    {
      "type": "Feature",
      "properties": {
        "norad_id": 66824,
        "name": "STARLINK-35896",
        "group": "last-30-days",
        "lat": 53.012609843687414,
        "lon": -153.86782486314675,
        "alt_km": 405.5614316686706,
        "timestamp": "2025-12-20T11:30:27.106204+00:00",
        "meta_object_name": "STARLINK-35896",
        "meta_object_id": "2025-280D",
        "meta_epoch": "2025-12-20T04:00:00.999072",
        "meta_mean_motion": 15.52520586,
        "meta_eccentricity": 0.0002968,
        "meta_inclination": 69.999,
        "meta_ra_of_asc_node": 178.0679,
        "meta_arg_of_pericenter": 268.2974,
        "meta_mean_anomaly": 202.2133,
        "meta_ephemeris_type": 0,
        "meta_classification_type": "U",
        "meta_norad_cat_id": 66824,
        "meta_element_set_no": 999,
        "meta_rev_at_epoch": 409,
        "meta_bstar": 1.3701e-05,
        "meta_mean_motion_dot": 6.76e-06,
        "meta_mean_motion_ddot": 0,
        "tle_line1": "1 66824U 25280D   25354.16667823  .00000676  00000+0  13701-4 0  9995",
        "tle_line2": "2 66824  69.9990 178.0679 0002968 268.2974 202.2133 15.52520586  4096"
      },
      "geometry": {
        "type": "Point",
        "coordinates": [
          -153.86782486314675,
          53.012609843687414
        ]
      }
    },
    {
      "type": "Feature",
      "properties": {
        "norad_id": 66825,
        "name": "STARLINK-35476",
        "group": "last-30-days",
        "lat": 54.58082408010712,
        "lon": -151.98015696723627,
        "alt_km": 405.4537821077902,
        "timestamp": "2025-12-20T11:30:27.106214+00:00",
        "meta_object_name": "STARLINK-35476",
        "meta_object_id": "2025-280E",
        "meta_epoch": "2025-12-20T04:00:00.999072",
        "meta_mean_motion": 15.52515953,
        "meta_eccentricity": 0.0003042,
        "meta_inclination": 69.999,
        "meta_ra_of_asc_node": 178.0666,
        "meta_arg_of_pericenter": 268.3361,
        "meta_mean_anomaly": 204.1032,
        "meta_ephemeris_type": 0,
        "meta_classification_type": "U",
        "meta_norad_cat_id": 66825,
        "meta_element_set_no": 999,
        "meta_rev_at_epoch": 394,
        "meta_bstar": -5.8692e-05,
        "meta_mean_motion_dot": -3.776e-05,
        "meta_mean_motion_ddot": 0,
        "tle_line1": "1 66825U 25280E   25354.16667823 -.00003776  00000+0 -58692-4 0  9990",
        "tle_line2": "2 66825  69.9990 178.0666 0003042 268.3361 204.1032 15.52515953  3942"
      },
      "geometry": {
        "type": "Point",
        "coordinates": [
          -151.98015696723627,
          54.58082408010712
        ]
      }
    },
    {
      "type": "Feature",
      "properties": {
        "norad_id": 66826,
        "name": "STARLINK-35898",
        "group": "last-30-days",
        "lat": 56.11638203681509,
        "lon": -149.94641518498386,
        "alt_km": 405.30083977734375,
        "timestamp": "2025-12-20T11:30:27.106236+00:00",
        "meta_object_name": "STARLINK-35898",
        "meta_object_id": "2025-280F",
        "meta_epoch": "2025-12-20T04:00:00.999072",
        "meta_mean_motion": 15.52513863,
        "meta_eccentricity": 0.0003061,
        "meta_inclination": 69.9991,
        "meta_ra_of_asc_node": 178.0632,
        "meta_arg_of_pericenter": 268.9601,
        "meta_mean_anomaly": 205.4028,
        "meta_ephemeris_type": 0,
        "meta_classification_type": "U",
        "meta_norad_cat_id": 66826,
        "meta_element_set_no": 999,
        "meta_rev_at_epoch": 409,
        "meta_bstar": -8.9248e-05,
        "meta_mean_motion_dot": -5.653e-05,
        "meta_mean_motion_ddot": 0,
        "tle_line1": "1 66826U 25280F   25354.16667823 -.00005653  00000+0 -89248-4 0  9998",
        "tle_line2": "2 66826  69.9991 178.0632 0003061 268.9601 205.4028 15.52513863  4095"
      },
      "geometry": {
        "type": "Point",
        "coordinates": [
          -149.94641518498386,
          56.11638203681509
        ]
      }
    }
  ]
}